{
  "type": "FeatureCollection",
  "features": [
    {
      "type": "Feature",
      "properties": {
        "norad_id": 67082,
        "name": "STARLINK-36035",
        "group": "last-30-days",
        "lat": 57.36415522062265,
        "lon": -3.068007635570498,
        "alt_km": 335.0788692829774,
        "timestamp": "2025-12-26T05:31:11.220456+00:00",
        "meta_object_name": "STARLINK-36035",
        "meta_object_id": "2025-298H",
        "meta_epoch": "2025-12-25T22:00:01.999584",
        "meta_mean_motion": 15.78189492,
        "meta_eccentricity": 0.00036652,
        "meta_inclination": 69.9969,
        "meta_ra_of_asc_node": 212.4928,
        "meta_arg_of_pericenter": 278.775,
        "meta_mean_anomaly": 218.7161,
        "meta_ephemeris_type": 0,
        "meta_classification_type": "U",
        "meta_norad_cat_id": 67082,
        "meta_element_set_no": 999,
        "meta_rev_at_epoch": 309,
        "meta_bstar": -0.011233322,
        "meta_mean_motion_dot": -0.01707491,
        "meta_mean_motion_ddot": 0,
        "tle_line1": "1 67082U 25298H   25359.91668981 -.01707491  00000+0 -11233-1 0  9992",
        "tle_line2": "2 67082  69.9969 212.4928 0003665 278.7750 218.7161 15.78189492  3099"
      },
      "geometry": {
        "type": "Point",
        "coordinates": [
          -3.068007635570498,
          57.36415522062265
        ]
      }
    },
    {
      "type": "Feature",
      "properties": {
        "norad_id": 67083,
        "name": "STARLINK-36170",
        "group": "last-30-days",
        "lat": 55.73638022907712,
        "lon": -0.7296683008856373,
        "alt_km": 335.228890094314,
        "timestamp": "2025-12-26T05:31:11.220469+00:00",
        "meta_object_name": "STARLINK-36170",
        "meta_object_id": "2025-298J",
        "meta_epoch": "2025-12-25T22:00:01.999584",
        "meta_mean_motion": 15.78183229,
        "meta_eccentricity": 0.00037239,
        "meta_inclination": 69.9965,
        "meta_ra_of_asc_node": 212.49,
        "meta_arg_of_pericenter": 274.1456,
        "meta_mean_anomaly": 225.4303,
        "meta_ephemeris_type": 0,
        "meta_classification_type": "U",
        "meta_norad_cat_id": 67083,
        "meta_element_set_no": 999,
        "meta_rev_at_epoch": 309,
        "meta_bstar": -0.01122716,
        "meta_mean_motion_dot": -0.01706293,
        "meta_mean_motion_ddot": 0,
        "tle_line1": "1 67083U 25298J   25359.91668981 -.01706293  00000+0 -11227-1 0  9995",
        "tle_line2": "2 67083  69.9965 212.4900 0003723 274.1456 225.4303 15.78183229  3099"
      },
      "geometry": {
        "type": "Point",
        "coordinates": [
          -0.7296683008856373,
          55.73638022907712
        ]
      }
    },
    {
      "type": "Feature",
      "properties": {
        "norad_id": 67084,
        "name": "STARLINK-36166",
        "group": "last-30-days",
        "lat": 54.135003106855514,
        "lon": 1.3375706712915958,
        "alt_km": 335.4543020595811,
        "timestamp": "2025-12-26T05:31:11.220482+00:00",
        "meta_object_name": "STARLINK-36166",
        "meta_object_id": "2025-298K",
        "meta_epoch": "2025-12-25T22:00:01.999584",
        "meta_mean_motion": 15.78180039,
        "meta_eccentricity": 0.00036664,
        "meta_inclination": 69.9965,
        "meta_ra_of_asc_node": 212.4876,
        "meta_arg_of_pericenter": 278.4678,
        "meta_mean_anomaly": 223.1011,
        "meta_ephemeris_type": 0,
        "meta_classification_type": "U",
        "meta_norad_cat_id": 67084,
        "meta_element_set_no": 999,
        "meta_rev_at_epoch": 303,
        "meta_bstar": -0.011236932,
        "meta_mean_motion_dot": -0.01707333,
        "meta_mean_motion_ddot": 0,
        "tle_line1": "1 67084U 25298K   25359.91668981 -.01707333  00000+0 -11237-1 0  9993",
        "tle_line2": "2 67084  69.9965 212.4876 0003666 278.4678 223.1011 15.78180039  3032"
      },
      "geometry": {
        "type": "Point",
        "coordinates": [
          1.3375706712915958,
          54.135003106855514
        ]
      }
    },
    {
      "type": "Feature",
      "properties": {
        "norad_id": 67085,
        "name": "STARLINK-35794",
        "group": "last-30-days",
        "lat": 52.52488565161739,
        "lon": 3.222619364692392,
        "alt_km": 335.57952594930885,
        "timestamp": "2025-12-26T05:31:11.220493+00:00",
        "meta_object_name": "STARLINK-35794",
        "meta_object_id": "2025-298L",
        "meta_epoch": "2025-12-25T22:00:01.999584",
        "meta_mean_motion": 15.78177952,
        "meta_eccentricity": 0.00036892,
        "meta_inclination": 69.9967,
        "meta_ra_of_asc_node": 212.4852,
        "meta_arg_of_pericenter": 274.6577,
        "meta_mean_anomaly": 228.8789,
        "meta_ephemeris_type": 0,
        "meta_classification_type": "U",
        "meta_norad_cat_id": 67085,
        "meta_element_set_no": 999,
        "meta_rev_at_epoch": 309,
        "meta_bstar": -0.011227405,
        "meta_mean_motion_dot": -0.0170593,
        "meta_mean_motion_ddot": 0,
        "tle_line1": "1 67085U 25298L   25359.91668981 -.01705930  00000+0 -11227-1 0  9994",
        "tle_line2": "2 67085  69.9967 212.4852 0003689 274.6577 228.8789 15.78177952  3090"
      },
      "geometry": {
        "type": "Point",
        "coordinates": [
          3.222619364692392,
          52.52488565161739
        ]
      }
    },
    {
      "type": "Feature",
      "properties": {
        "norad_id": 67086,
        "name": "STARLINK-35841",
        "group": "last-30-days",
        "lat": 50.72582878714406,
        "lon": 5.136282797690421,
        "alt_km": 335.781666333889,
        "timestamp": "2025-12-26T05:31:11.220508+00:00",
        "meta_object_name": "STARLINK-35841",
        "meta_object_id": "2025-298M",
        "meta_epoch": "2025-12-25T22:00:01.999584",
        "meta_mean_motion": 15.78165857,
        "meta_eccentricity": 0.00035247,
        "meta_inclination": 69.9964,
        "meta_ra_of_asc_node": 212.4826,
        "meta_arg_of_pericenter": 277.8906,
        "meta_mean_anomaly": 227.8105,
        "meta_ephemeris_type": 0,
        "meta_classification_type": "U",
        "meta_norad_cat_id": 67086,
        "meta_element_set_no": 999,
        "meta_rev_at_epoch": 309,
        "meta_bstar": -0.011225765,
        "meta_mean_motion_dot": -0.01704721,
        "meta_mean_motion_ddot": 0,
        "tle_line1": "1 67086U 25298M   25359.91668981 -.01704721  00000+0 -11226-1 0  9991",
        "tle_line2": "2 67086  69.9964 212.4826 0003524 277.8906 227.8105 15.78165857  3090"
      },
      "geometry": {
        "type": "Point",
        "coordinates": [
          5.136282797690421,
          50.72582878714406
        ]
      }
    },
    {
      "type": "Feature",
      "properties": {
        "norad_id": 67087,
        "name": "STARLINK-35842",
        "group": "last-30-days",
        "lat": 58.893630099790705,
        "lon": -5.533164180498808,
        "alt_km": 343.7564950017195,
        "timestamp": "2025-12-26T05:31:11.220518+00:00",
        "meta_object_name": "STARLINK-35842",
        "meta_object_id": "2025-298N",
        "meta_epoch": "2025-12-25T22:00:01.999584",
        "meta_mean_motion": 15.75507626,
        "meta_eccentricity": 0.00034336,
        "meta_inclination": 69.9977,
        "meta_ra_of_asc_node": 212.4906,
        "meta_arg_of_pericenter": 274.497,
        "meta_mean_anomaly": 224.3016,
        "meta_ephemeris_type": 0,
        "meta_classification_type": "U",
        "meta_norad_cat_id": 67087,
        "meta_element_set_no": 999,
        "meta_rev_at_epoch": 309,
        "meta_bstar": -0.018238975,
        "meta_mean_motion_dot": -0.02395912,
        "meta_mean_motion_ddot": 0,
        "tle_line1": "1 67087U 25298N   25359.91668981 -.02395912  00000+0 -18239-1 0  9992",
        "tle_line2": "2 67087  69.9977 212.4906 0003433 274.4970 224.3016 15.75507626  3091"
      },
      "geometry": {
        "type": "Point",
        "coordinates": [
          -5.533164180498808,
          58.893630099790705
        ]
      }
    },
    {
      "type": "Feature",
      "properties": {
        "norad_id": 67088,
        "name": "STARLINK-35882",
        "group": "last-30-days",
        "lat": 47.37747878056447,
        "lon": 8.26776802108229,
        "alt_km": 336.23563972322427,
        "timestamp": "2025-12-26T05:31:11.220528+00:00",
        "meta_object_name": "STARLINK-35882",
        "meta_object_id": "2025-298P",
        "meta_epoch": "2025-12-25T22:00:01.999584",
        "meta_mean_motion": 15.78161517,
        "meta_eccentricity": 0.00036902,
        "meta_inclination": 69.9967,
        "meta_ra_of_asc_node": 212.4781,
        "meta_arg_of_pericenter": 275.4882,
        "meta_mean_anomaly": 234.1439,
        "meta_ephemeris_type": 0,
        "meta_classification_type": "U",
        "meta_norad_cat_id": 67088,
        "meta_element_set_no": 999,
        "meta_rev_at_epoch": 309,
        "meta_bstar": -0.01122054,
        "meta_mean_motion_dot": -0.01703886,
        "meta_mean_motion_ddot": 0,
        "tle_line1": "1 67088U 25298P   25359.91668981 -.01703886  00000+0 -11221-1 0  9999",
        "tle_line2": "2 67088  69.9967 212.4781 0003690 275.4882 234.1439 15.78161517  3096"
      },
      "geometry": {
        "type": "Point",
        "coordinates": [
          8.26776802108229,
          47.37747878056447
        ]
      }
    }
  ]
}